COSMOS 2251 DEB         
1 37957U 93036BPG 17343.59591404  .00004296  00000-0  60916-3 0  9993
2 37957  74.0223  86.4572 0008424 117.0918 243.1117 14.77307375241301
